{
  "type": "FeatureCollection",
  "features": [
    {
      "type": "Feature",
      "properties": {
        "norad_id": 37867,
        "name": "COSMOS 2476 (744)",
        "group": "glo-ops",
        "lat": -30.81668035494797,
        "lon": 62.91212059366977,
        "alt_km": 19134.92944745162,
        "timestamp": "2025-12-20T14:38:02.230955+00:00",
        "meta_object_name": "COSMOS 2476 (744)",
        "meta_object_id": "2011-064A",
        "meta_epoch": "2025-12-19T06:05:26.552256",
        "meta_mean_motion": 2.13103916,
        "meta_eccentricity": 0.0024321,
        "meta_inclination": 65.1662,
        "meta_ra_of_asc_node": 78.9509,
        "meta_arg_of_pericenter": 234.6548,
        "meta_mean_anomaly": 130.4776,
        "meta_ephemeris_type": 0,
        "meta_classification_type": "U",
        "meta_norad_cat_id": 37867,
        "meta_element_set_no": 999,
        "meta_rev_at_epoch": 10993,
        "meta_bstar": 0,
        "meta_mean_motion_dot": -3e-07,
        "meta_mean_motion_ddot": 0,
        "tle_line1": "1 37867U 11064A   25353.25377954 -.00000030  00000+0  00000+0 0  9995",
        "tle_line2": "2 37867  65.1662  78.9509 0024321 234.6548 130.4776  2.13103916109937"
      },
      "geometry": {
        "type": "Point",
        "coordinates": [
          62.91212059366977,
          -30.81668035494797
        ]
      }
    },
    {
      "type": "Feature",
      "properties": {
        "norad_id": 37868,
        "name": "COSMOS 2477 (745)",
        "group": "glo-ops",
        "lat": 30.441325194514576,
        "lon": -116.76204721987156,
        "alt_km": 19125.081502880155,
        "timestamp": "2025-12-20T14:38:02.230966+00:00",
        "meta_object_name": "COSMOS 2477 (745)",
        "meta_object_id": "2011-064B",
        "meta_epoch": "2025-12-19T13:37:36.499584",
        "meta_mean_motion": 2.13102956,
        "meta_eccentricity": 0.0021226,
        "meta_inclination": 65.1727,
        "meta_ra_of_asc_node": 79.0178,
        "meta_arg_of_pericenter": 234.8822,
        "meta_mean_anomaly": 192.052,
        "meta_ephemeris_type": 0,
        "meta_classification_type": "U",
        "meta_norad_cat_id": 37868,
        "meta_element_set_no": 999,
        "meta_rev_at_epoch": 10993,
        "meta_bstar": 0,
        "meta_mean_motion_dot": -2.7e-07,
        "meta_mean_motion_ddot": 0,
        "tle_line1": "1 37868U 11064B   25353.56778356 -.00000027  00000+0  00000+0 0  9997",
        "tle_line2": "2 37868  65.1727  79.0178 0021226 234.8822 192.0520  2.13102956109936"
      },
      "geometry": {
        "type": "Point",
        "coordinates": [
          -116.76204721987156,
          30.441325194514576
        ]
      }
    },
    {
      "type": "Feature",
      "properties": {
        "norad_id": 37869,
        "name": "COSMOS 2475 (743)",
        "group": "glo-ops",
        "lat": 62.604037480197036,
        "lon": -164.02943066323567,
        "alt_km": 19179.517531447767,
        "timestamp": "2025-12-20T14:38:02.230978+00:00",
        "meta_object_name": "COSMOS 2475 (743)",
        "meta_object_id": "2011-064C",
        "meta_epoch": "2025-12-19T14:11:24.597888",
        "meta_mean_motion": 2.13101629,
        "meta_eccentricity": 0.0026449,
        "meta_inclination": 65.1796,
        "meta_ra_of_asc_node": 79.0372,
        "meta_arg_of_pericenter": 248.8375,
        "meta_mean_anomaly": 152.0175,
        "meta_ephemeris_type": 0,
        "meta_classification_type": "U",
        "meta_norad_cat_id": 37869,
        "meta_element_set_no": 999,
        "meta_rev_at_epoch": 10994,
        "meta_bstar": 0,
        "meta_mean_motion_dot": -2.6e-07,
        "meta_mean_motion_ddot": 0,
        "tle_line1": "1 37869U 11064C   25353.59125692 -.00000026  00000+0  00000+0 0  9999",
        "tle_line2": "2 37869  65.1796  79.0372 0026449 248.8375 152.0175  2.13101629109948"
      },
      "geometry": {
        "type": "Point",
        "coordinates": [
          -164.02943066323567,
          62.604037480197036
        ]
      }
    },
    {
      "type": "Feature",
      "properties": {
        "norad_id": 39155,
        "name": "COSMOS 2485 (747)",
        "group": "glo-ops",
        "lat": 12.54439673957843,
        "lon": 85.47748832131464,
        "alt_km": 19179.733899911287,
        "timestamp": "2025-12-20T14:38:02.230989+00:00",
        "meta_object_name": "COSMOS 2485 (747)",
        "meta_object_id": "2013-019A",
        "meta_epoch": "2025-12-20T02:56:15.294336",
        "meta_mean_motion": 2.13103192,
        "meta_eccentricity": 0.00247921,
        "meta_inclination": 65.3175,
        "meta_ra_of_asc_node": 79.6189,
        "meta_arg_of_pericenter": 230.0872,
        "meta_mean_anomaly": 129.7256,
        "meta_ephemeris_type": 0,
        "meta_classification_type": "U",
        "meta_norad_cat_id": 39155,
        "meta_element_set_no": 999,
        "meta_rev_at_epoch": 9846,
        "meta_bstar": 0,
        "meta_mean_motion_dot": -2e-07,
        "meta_mean_motion_ddot": 0,
        "tle_line1": "1 39155U 13019A   25354.12239924 -.00000020  00000+0  00000+0 0  9999",
        "tle_line2": "2 39155  65.3175  79.6189 0024792 230.0872 129.7256  2.13103192 98469"
      },
      "geometry": {
        "type": "Point",
        "coordinates": [
          85.47748832131464,
          12.54439673957843
        ]
      }
    },
    {
      "type": "Feature",
      "properties": {
        "norad_id": 39620,
        "name": "COSMOS 2492 (754)",
        "group": "glo-ops",
        "lat": 40.591340645182015,
        "lon": -16.916583062069392,
        "alt_km": 19126.970397458845,
        "timestamp": "2025-12-20T14:38:02.231000+00:00",
        "meta_object_name": "COSMOS 2492 (754)",
        "meta_object_id": "2014-012A",
        "meta_epoch": "2025-12-20T01:56:38.014656",
        "meta_mean_motion": 2.13103387,
        "meta_eccentricity": 0.00142311,
        "meta_inclination": 65.4033,
        "meta_ra_of_asc_node": 320.0211,
        "meta_arg_of_pericenter": 312.7815,
        "meta_mean_anomaly": 47.0902,
        "meta_ephemeris_type": 0,
        "meta_classification_type": "U",
        "meta_norad_cat_id": 39620,
        "meta_element_set_no": 999,
        "meta_rev_at_epoch": 9142,
        "meta_bstar": 0,
        "meta_mean_motion_dot": -5.4e-07,
        "meta_mean_motion_ddot": 0,
        "tle_line1": "1 39620U 14012A   25354.08099554 -.00000054  00000+0  00000+0 0  9995",
        "tle_line2": "2 39620  65.4033 320.0211 0014231 312.7815  47.0902  2.13103387 91426"
      },
      "geometry": {
        "type": "Point",
        "coordinates": [
          -16.916583062069392,
          40.591340645182015
        ]
      }
    },
    {
      "type": "Feature",
      "properties": {
        "norad_id": 40001,
        "name": "COSMOS 2500 (755)",
        "group": "glo-ops",
        "lat": -65.08312173419739,
        "lon": -121.54962192080666,
        "alt_km": 19124.60220912895,
        "timestamp": "2025-12-20T14:38:02.231011+00:00",
        "meta_object_name": "COSMOS 2500 (755)",
        "meta_object_id": "2014-032A",
        "meta_epoch": "2025-12-20T06:04:27.950592",
        "meta_mean_motion": 2.13106227,
        "meta_eccentricity": 0.0007772,
        "meta_inclination": 65.3391,
        "meta_ra_of_asc_node": 319.7771,
        "meta_arg_of_pericenter": 219.4522,
        "meta_mean_anomaly": 140.4832,
        "meta_ephemeris_type": 0,
        "meta_classification_type": "U",
        "meta_norad_cat_id": 40001,
        "meta_element_set_no": 999,
        "meta_rev_at_epoch": 8964,
        "meta_bstar": 0,
        "meta_mean_motion_dot": -5.3e-07,
        "meta_mean_motion_ddot": 0,
        "tle_line1": "1 40001U 14032A   25354.25310128 -.00000053  00000+0  00000+0 0  9993",
        "tle_line2": "2 40001  65.3391 319.7771 0007772 219.4522 140.4832  2.13106227 89640"
      },
      "geometry": {
        "type": "Point",
        "coordinates": [
          -121.54962192080666,
          -65.08312173419739
        ]
      }
    },
    {
      "type": "Feature",
      "properties": {
        "norad_id": 40315,
        "name": "COSMOS 2501 (702K)",
        "group": "glo-ops",
        "lat": 59.425918566327226,
        "lon": -106.22806213134402,
        "alt_km": 19156.44786175154,
        "timestamp": "2025-12-20T14:38:02.231022+00:00",
        "meta_object_name": "COSMOS 2501 (702K)",
        "meta_object_id": "2014-075A",
        "meta_epoch": "2025-12-19T02:31:27.452640",
        "meta_mean_motion": 2.13101513,
        "meta_eccentricity": 0.0020099,
        "meta_inclination": 63.6146,
        "meta_ra_of_asc_node": 196.6046,
        "meta_arg_of_pericenter": 204.1838,
        "meta_mean_anomaly": 155.7988,
        "meta_ephemeris_type": 0,
        "meta_classification_type": "U",
        "meta_norad_cat_id": 40315,
        "meta_element_set_no": 999,
        "meta_rev_at_epoch": 8601,
        "meta_bstar": 0,
        "meta_mean_motion_dot": 1.06e-06,
        "meta_mean_motion_ddot": 0,
        "tle_line1": "1 40315U 14075A   25353.10517885  .00000106  00000+0  00000+0 0  9998",
        "tle_line2": "2 40315  63.6146 196.6046 0020099 204.1838 155.7988  2.13101513 86014"
      },
      "geometry": {
        "type": "Point",
        "coordinates": [
          -106.22806213134402,
          59.425918566327226
        ]
      }
    }
  ]
}